start=new Date('2022-08-10T00:00:00.000Z').valueOf();
sats=[{"MEAN_MOTION_DDOT":"0.0000000000000","BSTAR":"0.00188700000000","MEAN_ANOMALY":"251.1207","PERIAPSIS":"538.185","APOAPSIS":"541.466","REF_FRAME":"TEME","DECAY_DATE":null,"OBJECT_TYPE":"PAYLOAD","PERIOD":"95.439","CLASSIFICATION_TYPE":"U","GP_ID":"209931662","EPHEMERIS_TYPE":"0","COUNTRY_CODE":"US","OBJECT_ID":"2022-041E","FILE":"3533123","RA_OF_ASC_NODE":"219.9318","CENTER_NAME":"EARTH","ECCENTRICITY":"0.00023720","SITE":"AFETR","RCS_SIZE":"LARGE","REV_AT_EPOCH":"130","INCLINATION":"53.2140","MEAN_MOTION_DOT":"0.00029850","TIME_SYSTEM":"UTC","SEMIMAJOR_AXIS":"6917.960","ARG_OF_PERICENTER":"53.8762","OBJECT_NAME":"STARLINK-3740","MEAN_MOTION":"15.08813803","MEAN_ELEMENT_THEORY":"SGP4","NORAD_CAT_ID":"52265","TLE_LINE1":"1 52265U 22041E   22221.91667824  .00029850  00000-0  18870-2 0  9991","EPOCH":"2022-08-09T22:00:00.999936","LAUNCH_DATE":"2022-04-21","ELEMENT_SET_NO":"999","TLE_LINE2":"2 52265  53.2140 219.9318 0002372  53.8762 251.1207 15.08813803  1304"},{"FILE":"3533123","COUNTRY_CODE":"US","EPHEMERIS_TYPE":"0","OBJECT_ID":"2022-041F","CLASSIFICATION_TYPE":"U","GP_ID":"209931668","CENTER_NAME":"EARTH","ECCENTRICITY":"0.00021840","RA_OF_ASC_NODE":"219.9322","APOAPSIS":"541.273","REF_FRAME":"TEME","PERIAPSIS":"538.251","BSTAR":"0.00120420000000","MEAN_ANOMALY":"272.4761","MEAN_MOTION_DDOT":"0.0000000000000","PERIOD":"95.438","OBJECT_TYPE":"PAYLOAD","DECAY_DATE":null,"OBJECT_NAME":"STARLINK-3739","MEAN_ELEMENT_THEORY":"SGP4","MEAN_MOTION":"15.08834562","ARG_OF_PERICENTER":"52.5071","SEMIMAJOR_AXIS":"6917.897","LAUNCH_DATE":"2022-04-21","ELEMENT_SET_NO":"999","TLE_LINE2":"2 52266  53.2138 219.9322 0002184  52.5071 272.4761 15.08834562  1303","TLE_LINE1":"1 52266U 22041F   22221.91667824  .00018926  00000-0  12042-2 0  9999","NORAD_CAT_ID":"52266","EPOCH":"2022-08-09T22:00:00.999936","REV_AT_EPOCH":"130","INCLINATION":"53.2138","RCS_SIZE":"LARGE","SITE":"AFETR","TIME_SYSTEM":"UTC","MEAN_MOTION_DOT":"0.00018926"},{"TIME_SYSTEM":"UTC","MEAN_MOTION_DOT":"0.00033316","INCLINATION":"53.2135","REV_AT_EPOCH":"130","RCS_SIZE":"LARGE","SITE":"AFETR","TLE_LINE2":"2 52267  53.2135 219.9317 0002261  49.4284 295.6088 15.08820698  1306","LAUNCH_DATE":"2022-04-21","ELEMENT_SET_NO":"999","EPOCH":"2022-08-09T22:00:00.999936","TLE_LINE1":"1 52267U 22041G   22221.91667824  .00033316  00000-0  21026-2 0  9992","NORAD_CAT_ID":"52267","MEAN_MOTION":"15.08820698","MEAN_ELEMENT_THEORY":"SGP4","OBJECT_NAME":"STARLINK-3748","ARG_OF_PERICENTER":"49.4284","SEMIMAJOR_AXIS":"6917.939","PERIOD":"95.439","OBJECT_TYPE":"PAYLOAD","DECAY_DATE":null,"REF_FRAME":"TEME","APOAPSIS":"541.369","PERIAPSIS":"538.240","MEAN_ANOMALY":"295.6088","BSTAR":"0.00210260000000","MEAN_MOTION_DDOT":"0.0000000000000","ECCENTRICITY":"0.00022610","CENTER_NAME":"EARTH","RA_OF_ASC_NODE":"219.9317","FILE":"3533123","COUNTRY_CODE":"US","OBJECT_ID":"2022-041G","EPHEMERIS_TYPE":"0","CLASSIFICATION_TYPE":"U","GP_ID":"209931930"},{"PERIOD":"95.439","OBJECT_TYPE":"PAYLOAD","DECAY_DATE":null,"APOAPSIS":"541.179","REF_FRAME":"TEME","PERIAPSIS":"538.453","BSTAR":"0.00276460000000","MEAN_ANOMALY":"353.6408","MEAN_MOTION_DDOT":"0.0000000000000","CENTER_NAME":"EARTH","ECCENTRICITY":"0.00019700","RA_OF_ASC_NODE":"219.9311","FILE":"3533123","EPHEMERIS_TYPE":"0","COUNTRY_CODE":"US","OBJECT_ID":"2022-041H","CLASSIFICATION_TYPE":"U","GP_ID":"209932197","TIME_SYSTEM":"UTC","MEAN_MOTION_DOT":"0.00043958","REV_AT_EPOCH":"130","INCLINATION":"53.2135","RCS_SIZE":"LARGE","SITE":"AFETR","LAUNCH_DATE":"2022-04-21","ELEMENT_SET_NO":"999","TLE_LINE2":"2 52268  53.2135 219.9311 0001970  51.3491 353.6408 15.08816885  1303","TLE_LINE1":"1 52268U 22041H   22221.91667824  .00043958  00000-0  27646-2 0  9990","NORAD_CAT_ID":"52268","EPOCH":"2022-08-09T22:00:00.999936","OBJECT_NAME":"STARLINK-3746","MEAN_MOTION":"15.08816885","MEAN_ELEMENT_THEORY":"SGP4","ARG_OF_PERICENTER":"51.3491","SEMIMAJOR_AXIS":"6917.951"},{"SEMIMAJOR_AXIS":"6917.942","OBJECT_NAME":"STARLINK-3791","MEAN_MOTION":"15.08819762","MEAN_ELEMENT_THEORY":"SGP4","ARG_OF_PERICENTER":"58.1546","NORAD_CAT_ID":"52269","TLE_LINE1":"1 52269U 22041J   22221.91667824  .00044921  00000-0  28242-2 0  9995","EPOCH":"2022-08-09T22:00:00.999936","LAUNCH_DATE":"2022-04-21","ELEMENT_SET_NO":"999","TLE_LINE2":"2 52269  53.2150 219.9309 0001850  58.1546 306.8463 15.08819762  1309","RCS_SIZE":"LARGE","SITE":"AFETR","INCLINATION":"53.2150","REV_AT_EPOCH":"130","TIME_SYSTEM":"UTC","MEAN_MOTION_DOT":"0.00044921","COUNTRY_CODE":"US","OBJECT_ID":"2022-041J","EPHEMERIS_TYPE":"0","CLASSIFICATION_TYPE":"U","GP_ID":"209932061","FILE":"3533123","RA_OF_ASC_NODE":"219.9309","CENTER_NAME":"EARTH","ECCENTRICITY":"0.00018500","BSTAR":"0.00282420000000","MEAN_ANOMALY":"306.8463","MEAN_MOTION_DDOT":"0.0000000000000","APOAPSIS":"541.087","REF_FRAME":"TEME","PERIAPSIS":"538.527","OBJECT_TYPE":"PAYLOAD","DECAY_DATE":null,"PERIOD":"95.439"},{"MEAN_MOTION_DDOT":"0.0000000000000","BSTAR":"0.00183790000000","MEAN_ANOMALY":"9.6172","PERIAPSIS":"538.173","APOAPSIS":"541.398","REF_FRAME":"TEME","DECAY_DATE":null,"OBJECT_TYPE":"PAYLOAD","PERIOD":"95.438","GP_ID":"209932067","CLASSIFICATION_TYPE":"U","COUNTRY_CODE":"US","EPHEMERIS_TYPE":"0","OBJECT_ID":"2022-041K","FILE":"3533123","RA_OF_ASC_NODE":"219.9257","CENTER_NAME":"EARTH","ECCENTRICITY":"0.00023310","SITE":"AFETR","RCS_SIZE":"LARGE","INCLINATION":"53.2146","REV_AT_EPOCH":"130","MEAN_MOTION_DOT":"0.00029073","TIME_SYSTEM":"UTC","SEMIMAJOR_AXIS":"6917.920","ARG_OF_PERICENTER":"50.1944","OBJECT_NAME":"STARLINK-3804","MEAN_ELEMENT_THEORY":"SGP4","MEAN_MOTION":"15.08826912","TLE_LINE1":"1 52270U 22041K   22221.91667824  .00029073  00000-0  18379-2 0  9998","NORAD_CAT_ID":"52270","EPOCH":"2022-08-09T22:00:00.999936","LAUNCH_DATE":"2022-04-21","ELEMENT_SET_NO":"999","TLE_LINE2":"2 52270  53.2146 219.9257 0002331  50.1944   9.6172 15.08826912  1307"},{"RA_OF_ASC_NODE":"219.9311","CENTER_NAME":"EARTH","ECCENTRICITY":"0.00018850","OBJECT_ID":"2022-041L","COUNTRY_CODE":"US","EPHEMERIS_TYPE":"0","GP_ID":"209932328","CLASSIFICATION_TYPE":"U","FILE":"3533123","OBJECT_TYPE":"PAYLOAD","DECAY_DATE":null,"PERIOD":"95.439","BSTAR":"0.00279590000000","MEAN_ANOMALY":"332.0331","MEAN_MOTION_DDOT":"0.0000000000000","APOAPSIS":"541.139","REF_FRAME":"TEME","PERIAPSIS":"538.531","TLE_LINE1":"1 52271U 22041L   22221.91667824  .00044454  00000-0  27959-2 0  9993","NORAD_CAT_ID":"52271","EPOCH":"2022-08-09T22:00:00.999936","LAUNCH_DATE":"2022-04-21","ELEMENT_SET_NO":"999","TLE_LINE2":"2 52271  53.2148 219.9311 0001885  52.9825 332.0331 15.08810737  1300","SEMIMAJOR_AXIS":"6917.970","OBJECT_NAME":"STARLINK-3788","MEAN_MOTION":"15.08810737","MEAN_ELEMENT_THEORY":"SGP4","ARG_OF_PERICENTER":"52.9825","TIME_SYSTEM":"UTC","MEAN_MOTION_DOT":"0.00044454","RCS_SIZE":"LARGE","SITE":"AFETR","INCLINATION":"53.2148","REV_AT_EPOCH":"130"},{"REF_FRAME":"TEME","APOAPSIS":"541.137","PERIAPSIS":"538.529","MEAN_ANOMALY":"27.3461","BSTAR":"0.00261500000000","MEAN_MOTION_DDOT":"0.0000000000000","PERIOD":"95.439","OBJECT_TYPE":"PAYLOAD","DECAY_DATE":null,"FILE":"3533123","OBJECT_ID":"2022-041M","COUNTRY_CODE":"US","EPHEMERIS_TYPE":"0","CLASSIFICATION_TYPE":"U","GP_ID":"209931800","ECCENTRICITY":"0.00018850","CENTER_NAME":"EARTH","RA_OF_ASC_NODE":"219.9266","INCLINATION":"53.2158","REV_AT_EPOCH":"130","RCS_SIZE":"LARGE","SITE":"AFETR","TIME_SYSTEM":"UTC","MEAN_MOTION_DOT":"0.00041543","MEAN_MOTION":"15.08811353","MEAN_ELEMENT_THEORY":"SGP4","OBJECT_NAME":"STARLINK-3781","ARG_OF_PERICENTER":"52.4588","SEMIMAJOR_AXIS":"6917.968","TLE_LINE2":"2 52272  53.2158 219.9266 0001885  52.4588  27.3461 15.08811353  1305","ELEMENT_SET_NO":"999","LAUNCH_DATE":"2022-04-21","EPOCH":"2022-08-09T22:00:00.999936","TLE_LINE1":"1 52272U 22041M   22221.91667824  .00041543  00000-0  26150-2 0  9992","NORAD_CAT_ID":"52272"},{"SEMIMAJOR_AXIS":"6917.951","OBJECT_NAME":"STARLINK-3782","MEAN_MOTION":"15.08817028","MEAN_ELEMENT_THEORY":"SGP4","ARG_OF_PERICENTER":"68.2705","TLE_LINE1":"1 52273U 22041N   22221.91667824  .00040042  00000-0  25213-2 0  9995","NORAD_CAT_ID":"52273","EPOCH":"2022-08-09T22:00:00.999936","LAUNCH_DATE":"2022-04-21","ELEMENT_SET_NO":"999","TLE_LINE2":"2 52273  53.2144 209.9306 0001639  68.2705 346.5462 15.08817028  1300","RCS_SIZE":"LARGE","SITE":"AFETR","INCLINATION":"53.2144","REV_AT_EPOCH":"130","TIME_SYSTEM":"UTC","MEAN_MOTION_DOT":"0.00040042","COUNTRY_CODE":"US","OBJECT_ID":"2022-041N","EPHEMERIS_TYPE":"0","GP_ID":"209931663","CLASSIFICATION_TYPE":"U","FILE":"3533123","RA_OF_ASC_NODE":"209.9306","CENTER_NAME":"EARTH","ECCENTRICITY":"0.00016390","BSTAR":"0.00252130000000","MEAN_ANOMALY":"346.5462","MEAN_MOTION_DDOT":"0.0000000000000","APOAPSIS":"540.949","REF_FRAME":"TEME","PERIAPSIS":"538.682","OBJECT_TYPE":"PAYLOAD","DECAY_DATE":null,"PERIOD":"95.439"},{"DECAY_DATE":null,"OBJECT_TYPE":"PAYLOAD","PERIOD":"95.440","MEAN_MOTION_DDOT":"0.0000000000000","BSTAR":"0.00256580000000","MEAN_ANOMALY":"48.2600","PERIAPSIS":"538.449","APOAPSIS":"541.282","REF_FRAME":"TEME","RA_OF_ASC_NODE":"219.9254","CENTER_NAME":"EARTH","ECCENTRICITY":"0.00020470","CLASSIFICATION_TYPE":"U","GP_ID":"209931669","OBJECT_ID":"2022-041P","COUNTRY_CODE":"US","EPHEMERIS_TYPE":"0","FILE":"3533123","MEAN_MOTION_DOT":"0.00040740","TIME_SYSTEM":"UTC","SITE":"AFETR","RCS_SIZE":"LARGE","REV_AT_EPOCH":"130","INCLINATION":"53.2157","NORAD_CAT_ID":"52274","TLE_LINE1":"1 52274U 22041P   22221.91667824  .00040740  00000-0  25658-2 0  9994","EPOCH":"2022-08-09T22:00:00.999936","ELEMENT_SET_NO":"999","LAUNCH_DATE":"2022-04-21","TLE_LINE2":"2 52274  53.2157 219.9254 0002047  56.7317  48.2600 15.08800717  1300","SEMIMAJOR_AXIS":"6918.000","ARG_OF_PERICENTER":"56.7317","OBJECT_NAME":"STARLINK-3790","MEAN_MOTION":"15.08800717","MEAN_ELEMENT_THEORY":"SGP4"}];
